[{"OBJECT_NAME":"STARLINK-1166","OBJECT_ID":"2020-006S","EPOCH":"2026-03-09T23:09:54.990720","MEAN_MOTION":15.45354542,"ECCENTRICITY":0.00047188,"INCLINATION":53.0527,"RA_OF_ASC_NODE":271.3766,"ARG_OF_PERICENTER":148.0301,"MEAN_ANOMALY":212.0992,"EPHEMERIS_TYPE":0,"CLASSIFICATION_TYPE":"U","NORAD_CAT_ID":45060,"ELEMENT_SET_NO":999,"REV_AT_EPOCH":33670,"BSTAR":0.0022317657,"MEAN_MOTION_DOT":0.00109358,"MEAN_MOTION_DDOT":0},{"OBJECT_NAME":"PSLV R\/B","OBJECT_ID":"2019-081B","EPOCH":"2026-03-09T21:41:57.489504","MEAN_MOTION":15.51275021,"ECCENTRICITY":0.00222604,"INCLINATION":97.1897,"RA_OF_ASC_NODE":108.7513,"ARG_OF_PERICENTER":106.0396,"MEAN_ANOMALY":254.331,"EPHEMERIS_TYPE":0,"CLASSIFICATION_TYPE":"U","NORAD_CAT_ID":44805,"ELEMENT_SET_NO":999,"REV_AT_EPOCH":34890,"BSTAR":0.00050111254,"MEAN_MOTION_DOT":0.00029651,"MEAN_MOTION_DDOT":0}]
